{
  "type": "FeatureCollection",
  "features": [
    {
      "type": "Feature",
      "properties": {
        "norad_id": 67146,
        "name": "KUIPER-00210",
        "group": "last-30-days",
        "lat": 33.8027421857973,
        "lon": 88.31832201046983,
        "alt_km": 461.0291520646397,
        "timestamp": "2025-12-26T23:26:40.924862+00:00",
        "meta_object_name": "KUIPER-00210",
        "meta_object_id": "2025-301P",
        "meta_epoch": "2025-12-26T18:33:32.598144",
        "meta_mean_motion": 15.34205466,
        "meta_eccentricity": 0.0010587,
        "meta_inclination": 51.8604,
        "meta_ra_of_asc_node": 57.5575,
        "meta_arg_of_pericenter": 151.9201,
        "meta_mean_anomaly": 208.2357,
        "meta_ephemeris_type": 0,
        "meta_classification_type": "U",
        "meta_norad_cat_id": 67146,
        "meta_element_set_no": 999,
        "meta_rev_at_epoch": 269,
        "meta_bstar": 0.00085165,
        "meta_mean_motion_dot": 0.000284,
        "meta_mean_motion_ddot": 0,
        "tle_line1": "1 67146U 25301P   25360.77329396  .00028400  00000+0  85165-3 0  9998",
        "tle_line2": "2 67146  51.8604  57.5575 0010587 151.9201 208.2357 15.34205466  2694"
      },
      "geometry": {
        "type": "Point",
        "coordinates": [
          88.31832201046983,
          33.8027421857973
        ]
      }
    },
    {
      "type": "Feature",
      "properties": {
        "norad_id": 67147,
        "name": "KUIPER-00221",
        "group": "last-30-days",
        "lat": 49.05406059692691,
        "lon": 171.59398517798445,
        "alt_km": 448.53230384605104,
        "timestamp": "2025-12-26T23:26:40.924871+00:00",
        "meta_object_name": "KUIPER-00221",
        "meta_object_id": "2025-301Q",
        "meta_epoch": "2025-12-26T15:10:34.099968",
        "meta_mean_motion": 15.35755171,
        "meta_eccentricity": 0.0005019,
        "meta_inclination": 51.8722,
        "meta_ra_of_asc_node": 58.1159,
        "meta_arg_of_pericenter": 114.3031,
        "meta_mean_anomaly": 245.848,
        "meta_ephemeris_type": 0,
        "meta_classification_type": "U",
        "meta_norad_cat_id": 67147,
        "meta_element_set_no": 999,
        "meta_rev_at_epoch": 250,
        "meta_bstar": 0.00057628,
        "meta_mean_motion_dot": 0.00020027,
        "meta_mean_motion_ddot": 0,
        "tle_line1": "1 67147U 25301Q   25360.63233912  .00020027  00000+0  57628-3 0  9992",
        "tle_line2": "2 67147  51.8722  58.1159 0005019 114.3031 245.8480 15.35755171  2507"
      },
      "geometry": {
        "type": "Point",
        "coordinates": [
          171.59398517798445,
          49.05406059692691
        ]
      }
    },
    {
      "type": "Feature",
      "properties": {
        "norad_id": 67148,
        "name": "KUIPER-00232",
        "group": "last-30-days",
        "lat": 26.88163359295556,
        "lon": -147.09146992666263,
        "alt_km": 452.5349439235606,
        "timestamp": "2025-12-26T23:26:40.924880+00:00",
        "meta_object_name": "KUIPER-00232",
        "meta_object_id": "2025-301R",
        "meta_epoch": "2025-12-26T18:08:06.787104",
        "meta_mean_motion": 15.367429,
        "meta_eccentricity": 0.0002226,
        "meta_inclination": 51.8747,
        "meta_ra_of_asc_node": 57.4386,
        "meta_arg_of_pericenter": 49.9258,
        "meta_mean_anomaly": 310.1923,
        "meta_ephemeris_type": 0,
        "meta_classification_type": "U",
        "meta_norad_cat_id": 67148,
        "meta_element_set_no": 999,
        "meta_rev_at_epoch": 252,
        "meta_bstar": 0.0010115,
        "meta_mean_motion_dot": 0.00036665,
        "meta_mean_motion_ddot": 0,
        "tle_line1": "1 67148U 25301R   25360.75563411  .00036665  00000+0  10115-2 0  9990",
        "tle_line2": "2 67148  51.8747  57.4386 0002226  49.9258 310.1923 15.36742900  2527"
      },
      "geometry": {
        "type": "Point",
        "coordinates": [
          -147.09146992666263,
          26.88163359295556
        ]
      }
    },
    {
      "type": "Feature",
      "properties": {
        "norad_id": 67149,
        "name": "KUIPER-00241",
        "group": "last-30-days",
        "lat": 39.13239019437188,
        "lon": -163.31175318393983,
        "alt_km": 449.9642410940023,
        "timestamp": "2025-12-26T23:26:40.924889+00:00",
        "meta_object_name": "KUIPER-00241",
        "meta_object_id": "2025-301S",
        "meta_epoch": "2025-12-26T16:39:05.730912",
        "meta_mean_motion": 15.36284193,
        "meta_eccentricity": 0.0002971,
        "meta_inclination": 51.8741,
        "meta_ra_of_asc_node": 57.7727,
        "meta_arg_of_pericenter": 101.8633,
        "meta_mean_anomaly": 258.2686,
        "meta_ephemeris_type": 0,
        "meta_classification_type": "U",
        "meta_norad_cat_id": 67149,
        "meta_element_set_no": 999,
        "meta_rev_at_epoch": 284,
        "meta_bstar": 0.00081377,
        "meta_mean_motion_dot": 0.00028959,
        "meta_mean_motion_ddot": 0,
        "tle_line1": "1 67149U 25301S   25360.69381633  .00028959  00000+0  81377-3 0  9994",
        "tle_line2": "2 67149  51.8741  57.7727 0002971 101.8633 258.2686 15.36284193  2844"
      },
      "geometry": {
        "type": "Point",
        "coordinates": [
          -163.31175318393983,
          39.13239019437188
        ]
      }
    },
    {
      "type": "Feature",
      "properties": {
        "norad_id": 67150,
        "name": "KUIPER-00245",
        "group": "last-30-days",
        "lat": 50.1336932965498,
        "lon": 166.32735053337467,
        "alt_km": 448.86197447270115,
        "timestamp": "2025-12-26T23:26:40.924898+00:00",
        "meta_object_name": "KUIPER-00245",
        "meta_object_id": "2025-301T",
        "meta_epoch": "2025-12-26T15:11:27.858912",
        "meta_mean_motion": 15.35659116,
        "meta_eccentricity": 0.0005014,
        "meta_inclination": 51.8728,
        "meta_ra_of_asc_node": 58.1185,
        "meta_arg_of_pericenter": 122.7078,
        "meta_mean_anomaly": 237.4392,
        "meta_ephemeris_type": 0,
        "meta_classification_type": "U",
        "meta_norad_cat_id": 67150,
        "meta_element_set_no": 999,
        "meta_rev_at_epoch": 250,
        "meta_bstar": 0.0005365,
        "meta_mean_motion_dot": 0.00018556,
        "meta_mean_motion_ddot": 0,
        "tle_line1": "1 67150U 25301T   25360.63296133  .00018556  00000+0  53650-3 0  9995",
        "tle_line2": "2 67150  51.8728  58.1185 0005014 122.7078 237.4392 15.35659116  2506"
      },
      "geometry": {
        "type": "Point",
        "coordinates": [
          166.32735053337467,
          50.1336932965498
        ]
      }
    },
    {
      "type": "Feature",
      "properties": {
        "norad_id": 67151,
        "name": "KUIPER-00246",
        "group": "last-30-days",
        "lat": 45.42496161264482,
        "lon": -176.42479619755036,
        "alt_km": 449.1960877025922,
        "timestamp": "2025-12-26T23:26:40.924908+00:00",
        "meta_object_name": "KUIPER-00246",
        "meta_object_id": "2025-301U",
        "meta_epoch": "2025-12-26T15:08:18.585888",
        "meta_mean_motion": 15.35931631,
        "meta_eccentricity": 0.0003975,
        "meta_inclination": 51.8739,
        "meta_ra_of_asc_node": 58.1025,
        "meta_arg_of_pericenter": 116.7856,
        "meta_mean_anomaly": 243.3537,
        "meta_ephemeris_type": 0,
        "meta_classification_type": "U",
        "meta_norad_cat_id": 67151,
        "meta_element_set_no": 999,
        "meta_rev_at_epoch": 252,
        "meta_bstar": 0.00069659,
        "meta_mean_motion_dot": 0.00024439,
        "meta_mean_motion_ddot": 0,
        "tle_line1": "1 67151U 25301U   25360.63077067  .00024439  00000+0  69659-3 0  9992",
        "tle_line2": "2 67151  51.8739  58.1025 0003975 116.7856 243.3537 15.35931631  2527"
      },
      "geometry": {
        "type": "Point",
        "coordinates": [
          -176.42479619755036,
          45.42496161264482
        ]
      }
    },
    {
      "type": "Feature",
      "properties": {
        "norad_id": 67152,
        "name": "KUIPER-00247",
        "group": "last-30-days",
        "lat": 29.048729748374242,
        "lon": 82.46655705001986,
        "alt_km": 463.733507181134,
        "timestamp": "2025-12-26T23:26:40.924920+00:00",
        "meta_object_name": "KUIPER-00247",
        "meta_object_id": "2025-301V",
        "meta_epoch": "2025-12-26T15:27:40.931136",
        "meta_mean_motion": 15.34015344,
        "meta_eccentricity": 0.0011231,
        "meta_inclination": 51.8629,
        "meta_ra_of_asc_node": 58.1938,
        "meta_arg_of_pericenter": 154.7768,
        "meta_mean_anomaly": 205.3768,
        "meta_ephemeris_type": 0,
        "meta_classification_type": "U",
        "meta_norad_cat_id": 67152,
        "meta_element_set_no": 999,
        "meta_rev_at_epoch": 250,
        "meta_bstar": 0.00084978,
        "meta_mean_motion_dot": 0.00028169,
        "meta_mean_motion_ddot": 0,
        "tle_line1": "1 67152U 25301V   25360.64422374  .00028169  00000+0  84978-3 0  9994",
        "tle_line2": "2 67152  51.8629  58.1938 0011231 154.7768 205.3768 15.34015344  2502"
      },
      "geometry": {
        "type": "Point",
        "coordinates": [
          82.46655705001986,
          29.048729748374242
        ]
      }
    }
  ]
}